<?xml version="1.0" encoding="UTF-8"?>
<ndm xmlns:xsi="http://www.w3.org/2001/XMLSchema-instance" xsi:noNamespaceSchemaLocation="https://sanaregistry.org/r/ndmxml_unqualified/ndmxml-2.0.0-master-2.0.xsd">
<omm id="CCSDS_OMM_VERS" version="2.0">
<header><CREATION_DATE/><ORIGINATOR/></header><body><segment><metadata><OBJECT_NAME>ORBCOMM FM103</OBJECT_NAME><OBJECT_ID>2014-040F</OBJECT_ID><CENTER_NAME>EARTH</CENTER_NAME><REF_FRAME>TEME</REF_FRAME><TIME_SYSTEM>UTC</TIME_SYSTEM><MEAN_ELEMENT_THEORY>SGP4</MEAN_ELEMENT_THEORY></metadata><data><meanElements><EPOCH>2024-12-13T19:24:16.020864</EPOCH><MEAN_MOTION>14.57552735</MEAN_MOTION><ECCENTRICITY>.0002099</ECCENTRICITY><INCLINATION>47.0039</INCLINATION><RA_OF_ASC_NODE>172.9120</RA_OF_ASC_NODE><ARG_OF_PERICENTER>170.7132</ARG_OF_PERICENTER><MEAN_ANOMALY>189.3793</MEAN_ANOMALY></meanElements><tleParameters><EPHEMERIS_TYPE>0</EPHEMERIS_TYPE><CLASSIFICATION_TYPE>U</CLASSIFICATION_TYPE><NORAD_CAT_ID>40091</NORAD_CAT_ID><ELEMENT_SET_NO>999</ELEMENT_SET_NO><REV_AT_EPOCH>55411</REV_AT_EPOCH><BSTAR>.31116E-3</BSTAR><MEAN_MOTION_DOT>.126E-4</MEAN_MOTION_DOT><MEAN_MOTION_DDOT>0</MEAN_MOTION_DDOT></tleParameters></data></segment></body></omm>
<omm id="CCSDS_OMM_VERS" version="2.0">
<header><CREATION_DATE/><ORIGINATOR/></header><body><segment><metadata><OBJECT_NAME>ORBCOMM FM114</OBJECT_NAME><OBJECT_ID>2015-081A</OBJECT_ID><CENTER_NAME>EARTH</CENTER_NAME><REF_FRAME>TEME</REF_FRAME><TIME_SYSTEM>UTC</TIME_SYSTEM><MEAN_ELEMENT_THEORY>SGP4</MEAN_ELEMENT_THEORY></metadata><data><meanElements><EPOCH>2024-12-13T16:47:53.973600</EPOCH><MEAN_MOTION>14.57614354</MEAN_MOTION><ECCENTRICITY>.0003042</ECCENTRICITY><INCLINATION>47.0032</INCLINATION><RA_OF_ASC_NODE>82.5931</RA_OF_ASC_NODE><ARG_OF_PERICENTER>235.2346</ARG_OF_PERICENTER><MEAN_ANOMALY>124.8253</MEAN_ANOMALY></meanElements><tleParameters><EPHEMERIS_TYPE>0</EPHEMERIS_TYPE><CLASSIFICATION_TYPE>U</CLASSIFICATION_TYPE><NORAD_CAT_ID>41179</NORAD_CAT_ID><ELEMENT_SET_NO>999</ELEMENT_SET_NO><REV_AT_EPOCH>47745</REV_AT_EPOCH><BSTAR>.38787E-3</BSTAR><MEAN_MOTION_DOT>.1615E-4</MEAN_MOTION_DOT><MEAN_MOTION_DDOT>0</MEAN_MOTION_DDOT></tleParameters></data></segment></body></omm>
<omm id="CCSDS_OMM_VERS" version="2.0">
<header><CREATION_DATE/><ORIGINATOR/></header><body><segment><metadata><OBJECT_NAME>ORBCOMM FM119</OBJECT_NAME><OBJECT_ID>2015-081B</OBJECT_ID><CENTER_NAME>EARTH</CENTER_NAME><REF_FRAME>TEME</REF_FRAME><TIME_SYSTEM>UTC</TIME_SYSTEM><MEAN_ELEMENT_THEORY>SGP4</MEAN_ELEMENT_THEORY></metadata><data><meanElements><EPOCH>2024-12-13T17:55:00.886656</EPOCH><MEAN_MOTION>14.57532158</MEAN_MOTION><ECCENTRICITY>.0002123</ECCENTRICITY><INCLINATION>47.0020</INCLINATION><RA_OF_ASC_NODE>351.6116</RA_OF_ASC_NODE><ARG_OF_PERICENTER>289.8959</ARG_OF_PERICENTER><MEAN_ANOMALY>70.1697</MEAN_ANOMALY></meanElements><tleParameters><EPHEMERIS_TYPE>0</EPHEMERIS_TYPE><CLASSIFICATION_TYPE>U</CLASSIFICATION_TYPE><NORAD_CAT_ID>41180</NORAD_CAT_ID><ELEMENT_SET_NO>999</ELEMENT_SET_NO><REV_AT_EPOCH>47866</REV_AT_EPOCH><BSTAR>.3591E-3</BSTAR><MEAN_MOTION_DOT>.148E-4</MEAN_MOTION_DOT><MEAN_MOTION_DDOT>0</MEAN_MOTION_DDOT></tleParameters></data></segment></body></omm>
<omm id="CCSDS_OMM_VERS" version="2.0">
<header><CREATION_DATE/><ORIGINATOR/></header><body><segment><metadata><OBJECT_NAME>ORBCOMM FM105</OBJECT_NAME><OBJECT_ID>2015-081C</OBJECT_ID><CENTER_NAME>EARTH</CENTER_NAME><REF_FRAME>TEME</REF_FRAME><TIME_SYSTEM>UTC</TIME_SYSTEM><MEAN_ELEMENT_THEORY>SGP4</MEAN_ELEMENT_THEORY></metadata><data><meanElements><EPOCH>2024-12-13T05:36:55.694016</EPOCH><MEAN_MOTION>14.44899029</MEAN_MOTION><ECCENTRICITY>.0002043</ECCENTRICITY><INCLINATION>47.0027</INCLINATION><RA_OF_ASC_NODE>341.0887</RA_OF_ASC_NODE><ARG_OF_PERICENTER>231.8622</ARG_OF_PERICENTER><MEAN_ANOMALY>128.2074</MEAN_ANOMALY></meanElements><tleParameters><EPHEMERIS_TYPE>0</EPHEMERIS_TYPE><CLASSIFICATION_TYPE>U</CLASSIFICATION_TYPE><NORAD_CAT_ID>41181</NORAD_CAT_ID><ELEMENT_SET_NO>999</ELEMENT_SET_NO><REV_AT_EPOCH>47385</REV_AT_EPOCH><BSTAR>.23456E-3</BSTAR><MEAN_MOTION_DOT>.667E-5</MEAN_MOTION_DOT><MEAN_MOTION_DDOT>0</MEAN_MOTION_DDOT></tleParameters></data></segment></body></omm>
<omm id="CCSDS_OMM_VERS" version="2.0">
<header><CREATION_DATE/><ORIGINATOR/></header><body><segment><metadata><OBJECT_NAME>ORBCOMM FM110</OBJECT_NAME><OBJECT_ID>2015-081D</OBJECT_ID><CENTER_NAME>EARTH</CENTER_NAME><REF_FRAME>TEME</REF_FRAME><TIME_SYSTEM>UTC</TIME_SYSTEM><MEAN_ELEMENT_THEORY>SGP4</MEAN_ELEMENT_THEORY></metadata><data><meanElements><EPOCH>2024-12-13T16:13:23.500416</EPOCH><MEAN_MOTION>14.57628250</MEAN_MOTION><ECCENTRICITY>.0001635</ECCENTRICITY><INCLINATION>47.0015</INCLINATION><RA_OF_ASC_NODE>82.0831</RA_OF_ASC_NODE><ARG_OF_PERICENTER>322.0961</ARG_OF_PERICENTER><MEAN_ANOMALY>37.9809</MEAN_ANOMALY></meanElements><tleParameters><EPHEMERIS_TYPE>0</EPHEMERIS_TYPE><CLASSIFICATION_TYPE>U</CLASSIFICATION_TYPE><NORAD_CAT_ID>41182</NORAD_CAT_ID><ELEMENT_SET_NO>999</ELEMENT_SET_NO><REV_AT_EPOCH>47745</REV_AT_EPOCH><BSTAR>.42388E-3</BSTAR><MEAN_MOTION_DOT>.1782E-4</MEAN_MOTION_DOT><MEAN_MOTION_DDOT>0</MEAN_MOTION_DDOT></tleParameters></data></segment></body></omm>
<omm id="CCSDS_OMM_VERS" version="2.0">
<header><CREATION_DATE/><ORIGINATOR/></header><body><segment><metadata><OBJECT_NAME>ORBCOMM FM118</OBJECT_NAME><OBJECT_ID>2015-081E</OBJECT_ID><CENTER_NAME>EARTH</CENTER_NAME><REF_FRAME>TEME</REF_FRAME><TIME_SYSTEM>UTC</TIME_SYSTEM><MEAN_ELEMENT_THEORY>SGP4</MEAN_ELEMENT_THEORY></metadata><data><meanElements><EPOCH>2024-12-13T12:26:45.553056</EPOCH><MEAN_MOTION>14.57553169</MEAN_MOTION><ECCENTRICITY>.0002049</ECCENTRICITY><INCLINATION>47.0039</INCLINATION><RA_OF_ASC_NODE>83.2024</RA_OF_ASC_NODE><ARG_OF_PERICENTER>328.9079</ARG_OF_PERICENTER><MEAN_ANOMALY>31.1684</MEAN_ANOMALY></meanElements><tleParameters><EPHEMERIS_TYPE>0</EPHEMERIS_TYPE><CLASSIFICATION_TYPE>U</CLASSIFICATION_TYPE><NORAD_CAT_ID>41183</NORAD_CAT_ID><ELEMENT_SET_NO>999</ELEMENT_SET_NO><REV_AT_EPOCH>47735</REV_AT_EPOCH><BSTAR>.42456E-3</BSTAR><MEAN_MOTION_DOT>.1782E-4</MEAN_MOTION_DOT><MEAN_MOTION_DDOT>0</MEAN_MOTION_DDOT></tleParameters></data></segment></body></omm>
<omm id="CCSDS_OMM_VERS" version="2.0">
<header><CREATION_DATE/><ORIGINATOR/></header><body><segment><metadata><OBJECT_NAME>ORBCOMM FM112</OBJECT_NAME><OBJECT_ID>2015-081F</OBJECT_ID><CENTER_NAME>EARTH</CENTER_NAME><REF_FRAME>TEME</REF_FRAME><TIME_SYSTEM>UTC</TIME_SYSTEM><MEAN_ELEMENT_THEORY>SGP4</MEAN_ELEMENT_THEORY></metadata><data><meanElements><EPOCH>2024-12-13T10:47:06.269568</EPOCH><MEAN_MOTION>14.57553328</MEAN_MOTION><ECCENTRICITY>.0002152</ECCENTRICITY><INCLINATION>46.9993</INCLINATION><RA_OF_ASC_NODE>352.1969</RA_OF_ASC_NODE><ARG_OF_PERICENTER>274.0756</ARG_OF_PERICENTER><MEAN_ANOMALY>85.9883</MEAN_ANOMALY></meanElements><tleParameters><EPHEMERIS_TYPE>0</EPHEMERIS_TYPE><CLASSIFICATION_TYPE>U</CLASSIFICATION_TYPE><NORAD_CAT_ID>41184</NORAD_CAT_ID><ELEMENT_SET_NO>999</ELEMENT_SET_NO><REV_AT_EPOCH>47856</REV_AT_EPOCH><BSTAR>.39176E-3</BSTAR><MEAN_MOTION_DOT>.1631E-4</MEAN_MOTION_DOT><MEAN_MOTION_DDOT>0</MEAN_MOTION_DDOT></tleParameters></data></segment></body></omm>
<omm id="CCSDS_OMM_VERS" version="2.0">
<header><CREATION_DATE/><ORIGINATOR/></header><body><segment><metadata><OBJECT_NAME>ORBCOMM FM113</OBJECT_NAME><OBJECT_ID>2015-081G</OBJECT_ID><CENTER_NAME>EARTH</CENTER_NAME><REF_FRAME>TEME</REF_FRAME><TIME_SYSTEM>UTC</TIME_SYSTEM><MEAN_ELEMENT_THEORY>SGP4</MEAN_ELEMENT_THEORY></metadata><data><meanElements><EPOCH>2024-12-13T10:14:36.412512</EPOCH><MEAN_MOTION>14.57559141</MEAN_MOTION><ECCENTRICITY>.000213</ECCENTRICITY><INCLINATION>47.0020</INCLINATION><RA_OF_ASC_NODE>352.6067</RA_OF_ASC_NODE><ARG_OF_PERICENTER>292.0187</ARG_OF_PERICENTER><MEAN_ANOMALY>68.0471</MEAN_ANOMALY></meanElements><tleParameters><EPHEMERIS_TYPE>0</EPHEMERIS_TYPE><CLASSIFICATION_TYPE>U</CLASSIFICATION_TYPE><NORAD_CAT_ID>41185</NORAD_CAT_ID><ELEMENT_SET_NO>999</ELEMENT_SET_NO><REV_AT_EPOCH>47854</REV_AT_EPOCH><BSTAR>.38683E-3</BSTAR><MEAN_MOTION_DOT>.1608E-4</MEAN_MOTION_DOT><MEAN_MOTION_DDOT>0</MEAN_MOTION_DDOT></tleParameters></data></segment></body></omm>

</ndm>
