ORBCOMM FM103           
1 40091U 14040F   24348.80851876  .00001260  00000+0  31116-3 0  9990
2 40091  47.0039 172.9120 0002099 170.7132 189.3793 14.57552735554112
ORBCOMM FM114           
1 41179U 15081A   24348.69993025  .00001615  00000+0  38787-3 0  9999
2 41179  47.0032  82.5931 0003042 235.2346 124.8253 14.57614354477454
ORBCOMM FM119           
1 41180U 15081B   24348.74653804  .00001480  00000+0  35910-3 0  9990
2 41180  47.0020 351.6116 0002123 289.8959  70.1697 14.57532158478662
ORBCOMM FM105           
1 41181U 15081C   24348.23397794  .00000667  00000+0  23456-3 0  9996
2 41181  47.0027 341.0887 0002043 231.8622 128.2074 14.44899029473852
ORBCOMM FM110           
1 41182U 15081D   24348.67596644  .00001782  00000+0  42388-3 0  9994
2 41182  47.0015  82.0831 0001635 322.0961  37.9809 14.57628250477458
ORBCOMM FM118           
1 41183U 15081E   24348.51858279  .00001782  00000+0  42456-3 0  9999
2 41183  47.0039  83.2024 0002049 328.9079  31.1684 14.57553169477359
ORBCOMM FM112           
1 41184U 15081F   24348.44937812  .00001631  00000+0  39176-3 0  9991
2 41184  46.9993 352.1969 0002152 274.0756  85.9883 14.57553328478560
ORBCOMM FM113           
1 41185U 15081G   24348.42681033  .00001608  00000+0  38683-3 0  9997
2 41185  47.0020 352.6067 0002130 292.0187  68.0471 14.57559141478544
